NORAD_CAT_ID,OBJECT_NAME,OBJECT_TYPE,EPOCH,MEAN_MOTION,ECCENTRICITY,INCLINATION,RA_OF_ASC_NODE,ARG_OF_PERICENTER,MEAN_ANOMALY,BSTAR,MEAN_MOTION_DOT,MEAN_MOTION_DDOT,TLE_LINE0,TLE_LINE1,TLE_LINE2,SEMIMAJOR_AXIS,PERIOD,APOGEE,PERIGEE,DECAYED
53137.0,STARLINK-4145,PAYLOAD,2023-03-15 21:20:37,15.08833305,7.26e-05,53.215,26.4227,56.6818,303.4244,-0.0004481,-7.411e-05,0.0,0 STARLINK-4145,1 53137U 22083F   23074.88932125 -.00007411  00000-0 -44810-3 0  9993,2 53137  53.2150  26.4227 0000726  56.6818 303.4244 15.08833305 36699,6917.901,95.438,540.268,539.264,0.0
53137.0,STARLINK-4145,PAYLOAD,2023-03-16 03:42:09,15.08850408,8.35e-05,53.2152,25.2353,64.3213,295.7866,0.00024922,3.682e-05,0.0,0 STARLINK-4145,1 53137U 22083F   23075.15427980  .00003682  00000-0  24922-3 0  9998,2 53137  53.2152  25.2353 0000835  64.3213 295.7866 15.08850408 37365,6917.849,95.437,540.291,539.136,0.0
53137.0,STARLINK-4145,PAYLOAD,2023-03-17 03:32:57,15.08834662,6.22e-05,53.2146,20.7742,72.815,287.291,0.00062676,9.7e-05,0.0,0 STARLINK-4145,1 53137U 22083F   23076.14789078  .00009700  00000-0  62676-3 0  9992,2 53137  53.2146  20.7742 0000622  72.8150 287.2910 15.08834662 37515,6917.897,95.438,540.192,539.331,0.0
53137.0,STARLINK-4145,PAYLOAD,2023-03-17 13:05:16,15.08830565,0.0001014,53.216,18.9878,90.0408,270.0701,0.00047949,7.35e-05,0.0,0 STARLINK-4145,1 53137U 22083F   23076.54533133  .00007350  00000-0  47949-3 0  9990,2 53137  53.2160  18.9878 0001014  90.0408 270.0701 15.08830565 36946,6917.909,95.438,540.476,539.073,0.0
53137.0,STARLINK-4145,PAYLOAD,2023-03-18 00:12:58,15.08838748,8.86e-05,53.2156,16.9084,101.6638,258.4453,0.00015209,2.134e-05,0.0,0 STARLINK-4145,1 53137U 22083F   23077.00901233  .00002134  00000-0  15209-3 0  9991,2 53137  53.2156  16.9084 0000886 101.6638 258.4453 15.08838748 37641,6917.884,95.438,540.362,539.136,0.0
53137.0,STARLINK-4145,PAYLOAD,2023-03-18 19:17:36,15.08837309,8.37e-05,53.2152,13.3389,78.8832,281.2254,0.00016332,2.312e-05,0.0,0 STARLINK-4145,1 53137U 22083F   23077.80389228  .00002312  00000-0  16332-3 0  9999,2 53137  53.2152  13.3389 0000837  78.8832 281.2254 15.08837309 37132,6917.889,95.438,540.333,539.175,0.0
53137.0,STARLINK-4145,PAYLOAD,2023-03-19 03:14:31,15.08852201,7.51e-05,53.2155,11.854,88.6424,271.4654,0.00045264,6.926e-05,0.0,0 STARLINK-4145,1 53137U 22083F   23078.13509009  .00006926  00000-0  45264-3 0  9998,2 53137  53.2155  11.8540 0000751  88.6424 271.4654 15.08852201 37816,6917.843,95.437,540.228,539.189,0.0
53137.0,STARLINK-4145,PAYLOAD,2023-03-19 12:46:51,15.08837622,0.000142,53.2172,10.0681,70.6211,289.4934,7.7809e-05,9.51e-06,0.0,0 STARLINK-4145,1 53137U 22083F   23078.53253528  .00000951  00000-0  77809-4 0  9997,2 53137  53.2172  10.0681 0001420  70.6211 289.4934 15.08837622 37877,6917.888,95.438,540.735,538.77,0.0
53137.0,STARLINK-4145,PAYLOAD,2023-03-20 04:40:42,15.08851343,9.92e-05,53.2156,7.0932,79.1624,280.9479,0.00050964,7.835e-05,0.0,0 STARLINK-4145,1 53137U 22083F   23079.19493135  .00007835  00000-0  50964-3 0  9990,2 53137  53.2156   7.0932 0000992  79.1624 280.9479 15.08851343 37976,6917.846,95.437,540.397,539.024,0.0
53137.0,STARLINK-4145,PAYLOAD,2023-03-20 12:37:38,15.08838046,0.0001168,53.2157,5.6101,66.3012,293.8102,0.00012957,1.775e-05,0.0,0 STARLINK-4145,1 53137U 22083F   23079.52613570  .00001775  00000-0  12957-3 0  9991,2 53137  53.2157   5.6101 0001168  66.3012 293.8102 15.08838046 38022,6917.886,95.438,540.559,538.943,0.0
53137.0,STARLINK-4145,PAYLOAD,2023-03-21 04:31:29,15.08852543,0.0001116,53.217,2.6338,92.1162,267.9958,0.00073239,0.00011391,0.0,0 STARLINK-4145,1 53137U 22083F   23080.18853402  .00011391  00000-0  73239-3 0  9990,2 53137  53.2170   2.6338 0001116  92.1162 267.9958 15.08852543 38122,6917.842,95.437,540.479,538.935,0.0
53137.0,STARLINK-4145,PAYLOAD,2023-03-21 22:00:44,15.08845464,7.09e-05,53.2163,359.3629,87.9039,272.2034,0.00086188,0.00013458,0.0,0 STARLINK-4145,1 53137U 22083F   23080.91717807  .00013458  00000-0  86188-3 0  9992,2 53137  53.2163 359.3629 0000709  87.9039 272.2034 15.08845464 37601,6917.864,95.437,540.219,539.238,0.0
53137.0,STARLINK-4145,PAYLOAD,2023-03-22 01:11:30,15.08852136,8.92e-05,53.2161,358.7689,99.2862,260.8231,0.0015297,0.00024149,0.0,0 STARLINK-4145,1 53137U 22083F   23081.04965806  .00024149  00000-0  15297-2 0  9992,2 53137  53.2161 358.7689 0000892  99.2862 260.8231 15.08852136 38259,6917.843,95.437,540.325,539.091,0.0
53137.0,STARLINK-4145,PAYLOAD,2023-03-22 21:51:31,15.08863139,0.0001019,53.2166,354.903,113.3751,246.7348,0.001711,0.00027065,0.0,0 STARLINK-4145,1 53137U 22083F   23081.91077788  .00027065  00000-0  17110-2 0  9997,2 53137  53.2166 354.9030 0001019 113.3751 246.7348 15.08863139 37750,6917.81,95.436,540.38,538.97,0.0
53137.0,STARLINK-4145,PAYLOAD,2023-03-23 01:02:17,15.08863734,8.83e-05,53.2162,354.3082,92.9264,267.1829,0.0014716,0.00023225,0.0,0 STARLINK-4145,1 53137U 22083F   23082.04325686  .00023225  00000-0  14716-2 0  9998,2 53137  53.2162 354.3082 0000883  92.9264 267.1829 15.08863734 38401,6917.808,95.436,540.284,539.062,0.0
53137.0,STARLINK-4145,PAYLOAD,2023-03-23 21:42:18,15.08853168,0.0001601,53.2156,350.4431,125.7703,234.3438,0.0013,0.0002047,0.0,0 STARLINK-4145,1 53137U 22083F   23082.90437822  .00020470  00000-0  13000-2 0  9993,2 53137  53.2156 350.4431 0001601 125.7703 234.3438 15.08853168 37907,6917.84,95.437,540.813,538.598,0.0
53137.0,STARLINK-4145,PAYLOAD,2023-03-24 04:03:50,15.08896984,0.0001032,53.2154,349.253,89.0638,271.0473,0.0031795,0.00050758,0.0,0 STARLINK-4145,1 53137U 22083F   23083.16933491  .00050758  00000-0  31795-2 0  9998,2 53137  53.2154 349.2530 0001032  89.0638 271.0473 15.08896984 38572,6917.706,95.434,540.285,538.857,0.0
53137.0,STARLINK-4145,PAYLOAD,2023-03-24 21:33:04,15.0885446,0.0001645,53.2138,345.9712,121.0205,239.0949,0.00073518,0.00011436,0.0,0 STARLINK-4145,1 53137U 22083F   23083.89797254  .00011436  00000-0  73518-3 0  9993,2 53137  53.2138 345.9712 0001645 121.0205 239.0949 15.08854460 38054,6917.836,95.437,540.839,538.563,0.0
53137.0,STARLINK-4145,PAYLOAD,2023-03-25 02:19:14,15.08865741,0.0001334,53.2152,345.0896,109.2751,250.8386,0.0014607,0.00023052,0.0,0 STARLINK-4145,1 53137U 22083F   23084.09669073  .00023052  00000-0  14607-2 0  9993,2 53137  53.2152 345.0896 0001334 109.2751 250.8386 15.08865741 38716,6917.802,95.436,540.59,538.744,0.0
53137.0,STARLINK-4145,PAYLOAD,2023-03-25 05:29:59,15.08882531,0.0001158,53.2146,344.494,95.4476,264.6648,0.0017664,0.00027969,0.0,0 STARLINK-4145,1 53137U 22083F   23084.22916629  .00027969  00000-0  17664-2 0  9997,2 53137  53.2146 344.4940 0001158  95.4476 264.6648 15.08882531 38738,6917.75,95.435,540.416,538.814,0.0
53137.0,STARLINK-4145,PAYLOAD,2023-03-25 21:23:53,15.08784594,0.0001648,53.2149,341.5214,118.8624,241.2534,-6.5731e-05,-1.332e-05,0.0,0 STARLINK-4145,1 53137U 22083F   23084.89159649 -.00001332  00000-0 -65731-4 0  9999,2 53137  53.2149 341.5214 0001648 118.8624 241.2534 15.08784594 38209,6918.05,95.441,541.055,538.775,0.0
53137.0,STARLINK-4145,PAYLOAD,2023-03-26 02:10:04,15.08782835,0.0001594,53.2145,340.6292,125.1994,234.9147,0.00073131,0.00011352,0.0,0 STARLINK-4145,1 53137U 22083F   23085.09032530  .00011352  00000-0  73131-3 0  9994,2 53137  53.2145 340.6292 0001594 125.1994 234.9147 15.08782835 38869,6918.055,95.441,541.023,538.817,0.0
53137.0,STARLINK-4145,PAYLOAD,2023-03-26 05:20:50,15.08799115,0.0001334,53.2147,340.0349,106.638,253.4758,0.00085385,0.00013312,0.0,0 STARLINK-4145,1 53137U 22083F   23085.22280851  .00013312  00000-0  85385-3 0  9992,2 53137  53.2147 340.0349 0001334 106.6380 253.4758 15.08799115 38888,6918.005,95.44,540.793,538.947,0.0
53137.0,STARLINK-4145,PAYLOAD,2023-03-26 22:50:04,15.08849546,0.0003949,53.215,336.7635,161.3941,198.7197,0.0025337,0.00040282,0.0,0 STARLINK-4145,1 53137U 22083F   23085.95143943  .00040282  00000-0  25337-2 0  9998,2 53137  53.2150 336.7635 0003949 161.3941 198.7197 15.08849546 38362,6917.851,95.437,542.448,536.984,0.0
53137.0,STARLINK-4145,PAYLOAD,2023-03-27 00:25:27,15.08870213,0.0001439,53.2153,336.4675,121.0011,239.1123,0.0016866,0.00026678,0.0,0 STARLINK-4145,1 53137U 22083F   23086.01768308  .00026678  00000-0  16866-2 0  9994,2 53137  53.2153 336.4675 0001439 121.0011 239.1123 15.08870213 39005,6917.788,95.436,540.649,538.658,0.0
53137.0,STARLINK-4145,PAYLOAD,2023-03-27 21:05:27,15.08873382,0.0001497,53.2154,332.6025,107.6755,252.4401,0.0010319,0.00016188,0.0,0 STARLINK-4145,1 53137U 22083F   23086.87879110  .00016188  00000-0  10319-2 0  9994,2 53137  53.2154 332.6025 0001497 107.6755 252.4401 15.08873382 39133,6917.778,95.435,540.679,538.608,0.0
53137.0,STARLINK-4145,PAYLOAD,2023-03-27 22:40:50,15.08872045,0.000146,53.2156,332.3031,123.4002,236.713,0.00071202,0.00011072,0.0,0 STARLINK-4145,1 53137U 22083F   23086.94502821  .00011072  00000-0  71202-3 0  9990,2 53137  53.2156 332.3031 0001460 123.4002 236.7130 15.08872045 38510,6917.782,95.436,540.657,538.637,0.0
53137.0,STARLINK-4145,PAYLOAD,2023-03-28 20:56:13,15.08851543,0.0001229,53.2154,328.1374,128.0232,232.0871,0.00054502,8.399e-05,0.0,0 STARLINK-4145,1 53137U 22083F   23087.87238368  .00008399  00000-0  54502-3 0  9997,2 53137  53.2154 328.1374 0001229 128.0232 232.0871 15.08851543 39286,6917.845,95.437,540.56,538.86,0.0
53137.0,STARLINK-4145,PAYLOAD,2023-03-29 00:07:00,15.08855023,0.0001015,53.2155,327.5446,111.0932,249.0168,0.00034665,5.236e-05,0.0,0 STARLINK-4145,1 53137U 22083F   23088.00486244  .00005236  00000-0  34665-3 0  9996,2 53137  53.2155 327.5446 0001015 111.0932 249.0168 15.08855023 38678,6917.834,95.437,540.402,538.997,0.0
53137.0,STARLINK-4145,PAYLOAD,2023-03-29 19:11:38,15.08842436,9.21e-05,53.2151,323.9762,79.4556,280.654,0.00032458,4.882e-05,0.0,0 STARLINK-4145,1 53137U 22083F   23088.79974673  .00004882  00000-0  32458-3 0  9994,2 53137  53.2151 323.9762 0000921  79.4556 280.6540 15.08842436 39422,6917.873,95.437,540.375,539.101,0.0
